ION SCV-017             
1 63230U 25052W   26068.71648816  .00006457  00000+0  24539-3 0  9998
2 63230  97.4016 324.7516 0023746  44.9875 315.3282 15.26881798 54851
STARLINK-33709          
1 63419U 25065W   26068.14755491  .00041815  00000+0  15197-2 0  9992
2 63419  42.9977 110.3793 0001213 265.0851  94.9862 15.27595604 52752
